SAUDISAT 2              
1 28371U 04025F   26169.47143206  .00000182  00000+0  51780-4 0  9998
2 28371  98.5507 169.4865 0023549 294.1244  65.7491 14.56684550165935
COSMOS 2407             
1 28380U 04028A   26169.47001866  .00000064  00000+0  50479-4 0  9999
2 28380  82.9608  73.8841 0037856 248.2126 285.6980 13.76334826100058
COSMOS 2414             
1 28521U 05002A   26169.69022409  .00000045  00000+0  24843-4 0  9994
2 28521  82.9497  42.5096 0039388 326.9208  32.9492 13.87926638 84022
INMARSAT 4-F1           
1 28628U 05009A   26169.43113546  .00000024  00000+0  00000+0 0  9995
2 28628   5.1707  42.7662 0002595  44.5014 152.7205  1.00271147 77687
SJ-7                    
1 28737U 05024A   26169.60320351  .00006250  00000+0  27961-3 0  9992
2 28737  97.7278 199.7449 0016201  33.3423 326.8829 15.21561340148245
CUBESAT XI-V            
1 28895U 05043F   26168.94617719  .00001113  00000+0  18286-3 0  9994
2 28895  98.2987 324.5839 0013704 198.2082 161.8635 14.72633352101868
HINODE (SOLAR-B)        
1 29479U 06041A   26169.61613955  .00000519  00000+0  97675-4 0  9994
2 29479  98.0545 185.7475 0015977 284.7920  75.1515 14.68624755 55082
SHIJIAN-6 02B (SJ-6 02B)
1 29506U 06046B   26169.67927416  .00001132  00000+0  92377-4 0  9992
2 29506  97.7152 198.7291 0015412  56.1607 304.1082 15.01380678 70969
DMSP 5D-3 F17 (USA 191) 
1 29522U 06050A   26169.65463353 -.00000014  00000+0  14922-4 0  9997
2 29522  98.7378 176.1948 0011124  55.5767 304.6456 14.14993111 12638
LAPAN-TUBSAT            
1 29709U 07001A   26169.73578824 -.00000066  00000+0 -99133-6 0  9997
2 29709  98.1337 168.9947 0011994 174.3883 185.7468 14.85949054 51387
HAIYANG-1B              
1 31113U 07010A   26169.68305132  .00000069  00000+0  41876-4 0  9993
2 31113  98.3495 151.4702 0013111 191.7892 168.2986 14.31027215   852
COSMO-SKYMED 2          
1 32376U 07059A   26169.78129870  .00000290  00000+0  42964-4 0  9997
2 32376  97.8886 353.3561 0001355  87.7396 272.3973 14.82156126  2246
CARTOSAT-2A             
1 32783U 08021A   26169.73761457  .00000192  00000+0  32606-4 0  9990
2 32783  97.7627 218.3934 0013189 104.0869 256.1810 14.79239753979034
CUTE-1.7+APD II (CO-65) 
1 32785U 08021C   26169.70716628  .00004368  00000+0  27673-3 0  9995
2 32785  97.8275 151.1573 0009595  34.0332 326.1510 15.09462529985420
SEEDS II (CO-66)        
1 32791U 08021J   26169.44123302  .00014056  00000+0  44622-3 0  9992
2 32791  97.7517 167.3987 0000890 357.5135   2.6101 15.32786684987483
YUBILEINY (RS30)        
1 32953U 08025A   26169.78850140 -.00000016  00000+0 -18711-3 0  9993
2 32953  82.5037 354.4435 0018799 310.2288  49.7147 12.43179339819894
FENGYUN 3A              
1 32958U 08026A   26169.59796868  .00000060  00000+0  49021-4 0  9990
2 32958  98.6883 110.4048 0009645 119.9737 240.2398 14.19571403935606
HUANJING 1A (HJ-1A)     
1 33320U 08041A   26169.71715928  .00001090  00000+0  13667-3 0  9993
2 33320  97.6682 155.4965 0020116 130.0719 230.2264 14.83988993958639
HUANJING 1B (HJ-1B)     
1 33321U 08041B   26169.75438341  .00000357  00000+0  49471-4 0  9997
2 33321  97.6518 158.6993 0036160 175.7206 184.4324 14.83318642958643
SHIJIAN-6 03A (SJ-6 03A)
1 33408U 08053A   26169.69765528  .00005024  00000+0  25622-3 0  9996
2 33408  97.8401 203.0713 0011499  15.1093 345.0480 15.17179068963195
SHIJIAN-6 03B (SJ-6 03B)
1 33409U 08053B   26169.76275046  .00000278  00000+0  24551-4 0  9993
2 33409  97.8567 189.6810 0020648  39.9408 320.3332 15.04308083962981
CHUANGXIN 1-02 (CX-1-02)
1 33434U 08056B   26169.69677654  .00000050  00000+0  36193-4 0  9990
2 33434  98.6127 195.9489 0015091 132.4149 227.8313 14.30153454918832
